{
  "norad_id": 67944,
  "name": "STARLINK-36892",
  "history": [
    {
      "epoch": "2026-03-28T06:38:45.837024Z",
      "apogee_km": 416.2931565972558,
      "perigee_km": 413.94133197788324,
      "latitude_deg": -1.9516176471315975e-05,
      "longitude_deg": 161.20721168010502,
      "height_km": 414.9757806572245,
      "semi_major_axis_km": 6793.254244287569,
      "eccentricity": 0.0001731,
      "inclination_deg": 43.001,
      "raan_deg": 86.5979,
      "arg_perigee_deg": 265.9167,
      "mean_anomaly_deg": 94.1495,
      "mean_motion_rev_day": 15.50550655
    },
    {
      "epoch": "2026-03-28T23:39:05.536800Z",
      "apogee_km": 415.3446926048391,
      "perigee_km": 414.2591809627402,
      "latitude_deg": 2.9844042755721636e-05,
      "longitude_deg": -98.71960827889244,
      "height_km": 414.75254679300116,
      "semi_major_axis_km": 6792.938936783789,
      "eccentricity": 7.99e-05,
      "inclination_deg": 42.9946,
      "raan_deg": 82.4515,
      "arg_perigee_deg": 250.9241,
      "mean_anomaly_deg": 109.1533,
      "mean_motion_rev_day": 15.50658614
    },
    {
      "epoch": "2026-03-30T00:23:12.007680Z",
      "apogee_km": 415.2277119626451,
      "perigee_km": 414.6234011176157,
      "latitude_deg": -7.546576997804012e-06,
      "longitude_deg": -116.78954536384862,
      "height_km": 414.89992925229546,
      "semi_major_axis_km": 6793.062556540131,
      "eccentricity": 4.448e-05,
      "inclination_deg": 42.9958,
      "raan_deg": 76.4244,
      "arg_perigee_deg": 228.1973,
      "mean_anomaly_deg": 131.8849,
      "mean_motion_rev_day": 15.50616286
    },
    {
      "epoch": "2026-03-30T15:50:49.335936Z",
      "apogee_km": 417.94462224496147,
      "perigee_km": 412.16443143860124,
      "latitude_deg": 2.5071317492228645e-05,
      "longitude_deg": 6.905520972343934,
      "height_km": 413.39665622518714,
      "semi_major_axis_km": 6793.191526841781,
      "eccentricity": 0.00042544,
      "inclination_deg": 43.0012,
      "raan_deg": 72.6599,
      "arg_perigee_deg": 299.7518,
      "mean_anomaly_deg": 60.2919,
      "mean_motion_rev_day": 15.50572128
    },
    {
      "epoch": "2026-04-02T20:00:01.999008Z",
      "apogee_km": 456.9557752724468,
      "perigee_km": 454.89188890115656,
      "latitude_deg": 7.279934037154404,
      "longitude_deg": -69.05018766733389,
      "height_km": 455.4720747159694,
      "semi_major_axis_km": 6834.060832086801,
      "eccentricity": 0.000151,
      "inclination_deg": 42.9996,
      "raan_deg": 54.3045,
      "arg_perigee_deg": 256.3501,
      "mean_anomaly_deg": 114.3625,
      "mean_motion_rev_day": 15.3668376
    },
    {
      "epoch": "2026-04-02T22:00:01.999584Z",
      "apogee_km": 457.98774331114055,
      "perigee_km": 455.96290963554657,
      "latitude_deg": 39.30518542450668,
      "longitude_deg": 11.751638405412297,
      "height_km": 460.2222997583403,
      "semi_major_axis_km": 6835.112326473343,
      "eccentricity": 0.00014812,
      "inclination_deg": 43.0002,
      "raan_deg": 53.8293,
      "arg_perigee_deg": 269.2251,
      "mean_anomaly_deg": 202.9808,
      "mean_motion_rev_day": 15.36329175
    },
    {
      "epoch": "2026-04-03T20:00:01.999008Z",
      "apogee_km": 469.32362334458594,
      "perigee_km": 467.51613232883756,
      "latitude_deg": 25.065169504286263,
      "longitude_deg": 66.510045755687,
      "height_km": 468.840662544045,
      "semi_major_axis_km": 6846.5568778367115,
      "eccentricity": 0.000132,
      "inclination_deg": 43.0004,
      "raan_deg": 48.5981,
      "arg_perigee_deg": 269.6031,
      "mean_anomaly_deg": 232.1577,
      "mean_motion_rev_day": 15.32478645
    },
    {
      "epoch": "2026-04-04T20:00:01.999008Z",
      "apogee_km": 484.38975687064703,
      "perigee_km": 482.04042991386814,
      "latitude_deg": -41.99650074641125,
      "longitude_deg": 163.5277373614295,
      "height_km": 494.9122628106057,
      "semi_major_axis_km": 6861.352093392257,
      "eccentricity": 0.0001712,
      "inclination_deg": 43.0007,
      "raan_deg": 42.9239,
      "arg_perigee_deg": 254.4377,
      "mean_anomaly_deg": 3.5122,
      "mean_motion_rev_day": 15.27524565
    },
    {
      "epoch": "2026-04-05T14:00:03.000384Z",
      "apogee_km": 484.39217971644575,
      "perigee_km": 481.71988225473797,
      "latitude_deg": 39.117067347779944,
      "longitude_deg": 54.91797433606618,
      "height_km": 486.66003312578016,
      "semi_major_axis_km": 6861.193030985592,
      "eccentricity": 0.00019474,
      "inclination_deg": 43.0015,
      "raan_deg": 38.6872,
      "arg_perigee_deg": 255.3988,
      "mean_anomaly_deg": 171.8385,
      "mean_motion_rev_day": 15.27577684
    },
    {
      "epoch": "2026-04-05T20:00:03.000384Z",
      "apogee_km": 484.3831428711592,
      "perigee_km": 481.826644141639,
      "latitude_deg": 2.469989859799386,
      "longitude_deg": -94.2321154379898,
      "height_km": 483.06519548036175,
      "semi_major_axis_km": 6861.241893506399,
      "eccentricity": 0.0001863,
      "inclination_deg": 43.0009,
      "raan_deg": 37.2771,
      "arg_perigee_deg": 252.0274,
      "mean_anomaly_deg": 111.6391,
      "mean_motion_rev_day": 15.27561366
    },
    {
      "epoch": "2026-04-06T06:00:02.000160Z",
      "apogee_km": 484.4661246656451,
      "perigee_km": 481.8773528785068,
      "latitude_deg": 27.45264977102384,
      "longitude_deg": -103.26896627499124,
      "height_km": 484.17137532347357,
      "semi_major_axis_km": 6861.308738772076,
      "eccentricity": 0.00018865,
      "inclination_deg": 43.0014,
      "raan_deg": 34.9258,
      "arg_perigee_deg": 266.5028,
      "mean_anomaly_deg": 231.1634,
      "mean_motion_rev_day": 15.27539043
    },
    {
      "epoch": "2026-04-07T20:00:00.999360Z",
      "apogee_km": 484.37209339746914,
      "perigee_km": 481.71681617446666,
      "latitude_deg": -23.181421067000482,
      "longitude_deg": 97.04580080939407,
      "height_km": 487.79103688354365,
      "semi_major_axis_km": 6861.181454785968,
      "eccentricity": 0.0001935,
      "inclination_deg": 43.0015,
      "raan_deg": 25.9836,
      "arg_perigee_deg": 270.1907,
      "mean_anomaly_deg": 304.8092,
      "mean_motion_rev_day": 15.2758155
    },
    {
      "epoch": "2026-04-08T01:20:25.475424Z",
      "apogee_km": 483.97357769728205,
      "perigee_km": 482.04449787729754,
      "latitude_deg": 2.650998419319346e-05,
      "longitude_deg": 168.2962978803994,
      "height_km": 482.8102581224117,
      "semi_major_axis_km": 6861.146037787289,
      "eccentricity": 0.00014058,
      "inclination_deg": 43.0032,
      "raan_deg": 24.7263,
      "arg_perigee_deg": 268.5644,
      "mean_anomaly_deg": 91.5047,
      "mean_motion_rev_day": 15.27593378
    },
    {
      "epoch": "2026-04-09T11:51:51.987744Z",
      "apogee_km": 483.6731514548155,
      "perigee_km": 482.3462056871804,
      "latitude_deg": -3.060758867577976e-06,
      "longitude_deg": 0.8927424144975938,
      "height_km": 482.82923563673756,
      "semi_major_axis_km": 6861.146678570997,
      "eccentricity": 9.67e-05,
      "inclination_deg": 43.0007,
      "raan_deg": 16.6011,
      "arg_perigee_deg": 266.2704,
      "mean_anomaly_deg": 93.8037,
      "mean_motion_rev_day": 15.27593164
    },
    {
      "epoch": "2026-04-10T11:24:12.256704Z",
      "apogee_km": 484.62260696879184,
      "perigee_km": 481.37180158280626,
      "latitude_deg": -1.1321847314776597e-05,
      "longitude_deg": 1.3032661164626342,
      "height_km": 482.7761656469126,
      "semi_major_axis_km": 6861.134204275799,
      "eccentricity": 0.0002369,
      "inclination_deg": 43.0019,
      "raan_deg": 11.0628,
      "arg_perigee_deg": 269.9538,
      "mean_anomaly_deg": 90.1042,
      "mean_motion_rev_day": 15.2759733
    },
    {
      "epoch": "2026-04-11T10:56:33.357696Z",
      "apogee_km": 483.9787655200398,
      "perigee_km": 482.0946872147797,
      "latitude_deg": 2.4943048758039196e-05,
      "longitude_deg": 1.7110616525451854,
      "height_km": 482.47578809985896,
      "semi_major_axis_km": 6861.1737263674095,
      "eccentricity": 0.0001373,
      "inclination_deg": 42.9996,
      "raan_deg": 5.5252,
      "arg_perigee_deg": 290.9964,
      "mean_anomaly_deg": 69.0741,
      "mean_motion_rev_day": 15.27584131
    },
    {
      "epoch": "2026-04-13T02:10:28.419744Z",
      "apogee_km": 484.1950828666895,
      "perigee_km": 481.8750461447962,
      "latitude_deg": 9.571296758685324e-06,
      "longitude_deg": 122.38631934016637,
      "height_km": 482.9757760308075,
      "semi_major_axis_km": 6861.172064505742,
      "eccentricity": 0.00016907,
      "inclination_deg": 43.0023,
      "raan_deg": 356.2911,
      "arg_perigee_deg": 261.8946,
      "mean_anomaly_deg": 98.1714,
      "mean_motion_rev_day": 15.27584686
    },
    {
      "epoch": "2026-04-14T09:33:35.899488Z",
      "apogee_km": 484.6831068850979,
      "perigee_km": 481.3724576543573,
      "latitude_deg": -4.391573808678419e-05,
      "longitude_deg": 2.9297448103908565,
      "height_km": 482.9741083216209,
      "semi_major_axis_km": 6861.164782269728,
      "eccentricity": 0.00024126,
      "inclination_deg": 43.0023,
      "raan_deg": 348.9047,
      "arg_perigee_deg": 264.1531,
      "mean_anomaly_deg": 95.9045,
      "mean_motion_rev_day": 15.27587118
    },
    {
      "epoch": "2026-04-15T09:05:56.607360Z",
      "apogee_km": 484.51499766843244,
      "perigee_km": 481.52915846084034,
      "latitude_deg": 1.5878070054175222e-05,
      "longitude_deg": 3.3366115459985246,
      "height_km": 483.04547992532514,
      "semi_major_axis_km": 6861.159078064636,
      "eccentricity": 0.00021759,
      "inclination_deg": 43.004,
      "raan_deg": 343.3645,
      "arg_perigee_deg": 260.5269,
      "mean_anomaly_deg": 99.5337,
      "mean_motion_rev_day": 15.27589023
    },
    {
      "epoch": "2026-04-16T08:38:17.517408Z",
      "apogee_km": 483.97379276390893,
      "perigee_km": 482.108924486035,
      "latitude_deg": -4.7827121083451155e-05,
      "longitude_deg": 3.7466021406763352,
      "height_km": 482.7234800938373,
      "semi_major_axis_km": 6861.178358624971,
      "eccentricity": 0.0001359,
      "inclination_deg": 43.0026,
      "raan_deg": 337.8284,
      "arg_perigee_deg": 275.8383,
      "mean_anomaly_deg": 84.2313,
      "mean_motion_rev_day": 15.27582584
    },
    {
      "epoch": "2026-04-17T22:18:02.823840Z",
      "apogee_km": 483.9814770414969,
      "perigee_km": 482.02742395639416,
      "latitude_deg": -5.034045096551209e-05,
      "longitude_deg": 148.39657753957712,
      "height_km": 482.7270699955611,
      "semi_major_axis_km": 6861.141450498945,
      "eccentricity": 0.0001424,
      "inclination_deg": 43.0042,
      "raan_deg": 328.9639,
      "arg_perigee_deg": 273.2024,
      "mean_anomaly_deg": 86.8664,
      "mean_motion_rev_day": 15.2759491
    },
    {
      "epoch": "2026-04-18T07:42:59.232960Z",
      "apogee_km": 483.9915144265706,
      "perigee_km": 482.0676433178551,
      "latitude_deg": -2.5390791015018686e-06,
      "longitude_deg": 4.561302794821561,
      "height_km": 482.774807877731,
      "semi_major_axis_km": 6861.166578872213,
      "eccentricity": 0.0001402,
      "inclination_deg": 43.001,
      "raan_deg": 326.7503,
      "arg_perigee_deg": 271.8819,
      "mean_anomaly_deg": 88.1872,
      "mean_motion_rev_day": 15.27586518
    }
  ]
}